GLOBALSTAR M035 [-]     
1 25851U 99037A   23286.92253322 -.00000028  00000+0  13456-2 0  9999
2 25851  51.9983 340.3544 0013846  70.5070  99.8738 11.04526632 28602
GLOBALSTAR M032 [-]     
1 25852U 99037B   23286.92635425 -.00000065  00000+0  61485-4 0  9996
2 25852  51.9939 207.7873 0007377 214.3619 145.6704 11.19044965 66249
GLOBALSTAR M051 [-]     
1 25853U 99037C   23286.72548409 -.00000067  00000+0  11777-3 0  9990
2 25853  51.9787  78.3583 0001635 169.3098 190.7747 11.42192896 62407
GLOBALSTAR M030 [-]     
1 25854U 99037D   23287.36540335 -.00000098  00000+0 -47816-3 0  9990
2 25854  51.9869 281.8226 0004563  28.1290 331.9773 11.55091778 79444
GLOBALSTAR M048 [-]     
1 25872U 99041A   23286.88724822 -.00000047  00000+0  61775-3 0  9999
2 25872  51.9402 349.3265 0013324 203.2556 328.6187 11.33840122 55522
GLOBALSTAR M026 [-]     
1 25873U 99041B   23287.46011510 -.00000039  00000+0  91319-3 0  9996
2 25873  51.9982 103.5624 0001270   6.9197   4.5472 11.06827995 80956
GLOBALSTAR M043 [-]     
1 25874U 99041C   23286.72885124 -.00000060  00000+0  24084-3 0  9994
2 25874  51.9395  72.9336 0012998 350.5136  22.1272 11.25675417 53904
GLOBALSTAR M028 [-]     
1 25875U 99041D   23287.08382270 -.00000083  00000+0  11027-3 0  9997
2 25875  51.9617 218.1817 0063133 181.8096 178.2545 12.50541867113629
